{"type": "Feature", "geometry": {"type": "Polygon", "coordinates": [[[88.208913, 27.916407], [88.208912, 27.916316], [88.208709, 27.916318], [88.208708, 27.916228], [88.208606, 27.916229], [88.208605, 27.916139], [88.208504, 27.91614], [88.208503, 27.916049], [88.208198, 27.916052], [88.208199, 27.916142], [88.208097, 27.916143], [88.208096, 27.916053], [88.207893, 27.916055], [88.207892, 27.915964], [88.207486, 27.915968], [88.207485, 27.915878], [88.206875, 27.915883], [88.206874, 27.915793], [88.206569, 27.915795], [88.206568, 27.915705], [88.20606, 27.91571], [88.206059, 27.915619], [88.205551, 27.915624], [88.20555, 27.915534], [88.205144, 27.915537], [88.205143, 27.915447], [88.204736, 27.91545], [88.204737, 27.915541], [88.200064, 27.915582], [88.200063, 27.915491], [88.199148, 27.915499], [88.199147, 27.915409], [88.198639, 27.915413], [88.19864, 27.915504], [88.195694, 27.915529], [88.195693, 27.915439], [88.195489, 27.915441], [88.195488, 27.91535], [88.195285, 27.915352], [88.195286, 27.915443], [88.194981, 27.915445], [88.194982, 27.915535], [88.194881, 27.915536], [88.19488, 27.915446], [88.194473, 27.91545], [88.194472, 27.915359], [88.194269, 27.915361], [88.194268, 27.915271], [88.193862, 27.915274], [88.193861, 27.915184], [88.19315, 27.91519], [88.193149, 27.9151], [88.192742, 27.915104], [88.192741, 27.915013], [88.192538, 27.915015], [88.192539, 27.915105], [88.192031, 27.91511], [88.192029, 27.914929], [88.191623, 27.914933], [88.191622, 27.914842], [88.191215, 27.914846], [88.191216, 27.914936], [88.190302, 27.914944], [88.190303, 27.915034], [88.189896, 27.915038], [88.189895, 27.914948], [88.189082, 27.914955], [88.189081, 27.914864], [88.188675, 27.914868], [88.188674, 27.914778], [88.188572, 27.914778], [88.188571, 27.914688], [88.187759, 27.914695], [88.187758, 27.914605], [88.187554, 27.914607], [88.187553, 27.914516], [88.187452, 27.914517], [88.187451, 27.914427], [88.187349, 27.914428], [88.18735, 27.914518], [88.187147, 27.91452], [88.187148, 27.91461], [88.186742, 27.914614], [88.186743, 27.914704], [88.186539, 27.914706], [88.186538, 27.914616], [88.184913, 27.91463], [88.184912, 27.914539], [88.184709, 27.914541], [88.184708, 27.914451], [88.184504, 27.914452], [88.184503, 27.914362], [88.184402, 27.914363], [88.184401, 27.914273], [88.184096, 27.914275], [88.184095, 27.914185], [88.183689, 27.914189], [88.183688, 27.914098], [88.183383, 27.914101], [88.183382, 27.914011], [88.183179, 27.914013], [88.183178, 27.913922], [88.183076, 27.913923], [88.183075, 27.913833], [88.182973, 27.913834], [88.182974, 27.913924], [88.182873, 27.913925], [88.182872, 27.913835], [88.182669, 27.913836], [88.182668, 27.913746], [88.181956, 27.913752], [88.181955, 27.913662], [88.181752, 27.913664], [88.181751, 27.913573], [88.181446, 27.913576], [88.181445, 27.913486], [88.181242, 27.913488], [88.181241, 27.913397], [88.181038, 27.913399], [88.181037, 27.913309], [88.180834, 27.913311], [88.180833, 27.91322], [88.180731, 27.913221], [88.18073, 27.913131], [88.180425, 27.913134], [88.180425, 27.913043], [88.180221, 27.913045], [88.180219, 27.912865], [88.180423, 27.912863], [88.180421, 27.912682], [88.180522, 27.912681], [88.180519, 27.912411], [88.180621, 27.91241], [88.180614, 27.911778], [88.180512, 27.911779], [88.180511, 27.911689], [88.180613, 27.911688], [88.180612, 27.911597], [88.180714, 27.911597], [88.180711, 27.911326], [88.180812, 27.911325], [88.18081, 27.911144], [88.180912, 27.911144], [88.180911, 27.911053], [88.181013, 27.911052], [88.181014, 27.911143], [88.181115, 27.911142], [88.181112, 27.910871], [88.181214, 27.91087], [88.181208, 27.910329], [88.18131, 27.910328], [88.181307, 27.910057], [88.181408, 27.910056], [88.181404, 27.909695], [88.181607, 27.909693], [88.181605, 27.909513], [88.181707, 27.909512], [88.181701, 27.908971], [88.181803, 27.90897], [88.181801, 27.908789], [88.181902, 27.908788], [88.1819, 27.908608], [88.182002, 27.908607], [88.182, 27.908426], [88.182102, 27.908425], [88.182096, 27.907884], [88.181994, 27.907885], [88.181992, 27.907704], [88.181891, 27.907705], [88.181889, 27.907525], [88.181787, 27.907526], [88.181784, 27.907255], [88.182191, 27.907251], [88.182192, 27.907342], [88.182395, 27.90734], [88.182396, 27.90743], [88.183005, 27.907425], [88.183006, 27.907515], [88.183413, 27.907512], [88.183414, 27.907602], [88.18382, 27.907598], [88.183821, 27.907689], [88.184126, 27.907686], [88.184127, 27.907776], [88.184432, 27.907774], [88.184433, 27.907864], [88.184737, 27.907861], [88.184738, 27.907952], [88.185348, 27.907946], [88.185349, 27.908037], [88.186162, 27.90803], [88.186163, 27.90812], [88.186264, 27.908119], [88.186263, 27.908029], [88.186365, 27.908028], [88.186366, 27.908118], [88.186772, 27.908115], [88.186773, 27.908205], [88.187078, 27.908202], [88.187079, 27.908292], [88.187181, 27.908292], [88.18718, 27.908201], [88.187586, 27.908198], [88.187587, 27.908288], [88.18779, 27.908286], [88.187789, 27.908196], [88.187891, 27.908195], [88.187892, 27.908285], [88.188298, 27.908282], [88.188299, 27.908372], [88.188909, 27.908367], [88.18891, 27.908457], [88.189011, 27.908456], [88.189012, 27.908547], [88.189622, 27.908541], [88.189623, 27.908632], [88.190029, 27.908628], [88.19003, 27.908718], [88.190335, 27.908716], [88.190336, 27.908806], [88.190844, 27.908802], [88.190845, 27.908892], [88.190947, 27.908891], [88.190946, 27.908801], [88.191352, 27.908797], [88.191353, 27.908887], [88.191455, 27.908887], [88.191458, 27.909157], [88.191559, 27.909156], [88.191557, 27.908976], [88.19176, 27.908974], [88.191761, 27.909064], [88.192066, 27.909062], [88.192064, 27.908881], [88.192267, 27.908879], [88.192268, 27.90897], [88.19237, 27.908969], [88.192373, 27.90924], [88.192576, 27.909238], [88.192577, 27.909328], [88.192679, 27.909327], [88.192676, 27.909056], [88.192777, 27.909056], [88.192779, 27.909236], [88.193186, 27.909233], [88.193185, 27.909142], [88.193591, 27.909139], [88.19359, 27.909049], [88.193895, 27.909046], [88.193896, 27.909136], [88.193998, 27.909135], [88.193999, 27.909226], [88.1941, 27.909225], [88.194099, 27.909134], [88.194302, 27.909133], [88.194303, 27.909223], [88.195218, 27.909215], [88.195219, 27.909305], [88.195524, 27.909303], [88.195525, 27.909393], [88.196236, 27.909387], [88.196235, 27.909296], [88.197048, 27.909289], [88.197049, 27.90938], [88.197353, 27.909377], [88.197352, 27.909287], [88.198267, 27.909279], [88.198268, 27.909369], [88.198573, 27.909366], [88.198574, 27.909457], [88.198777, 27.909455], [88.198778, 27.909545], [88.198981, 27.909543], [88.198982, 27.909634], [88.199388, 27.90963], [88.199389, 27.90972], [88.199694, 27.909718], [88.199695, 27.909808], [88.200102, 27.909804], [88.200103, 27.909895], [88.200306, 27.909893], [88.200307, 27.909983], [88.200612, 27.90998], [88.200613, 27.910071], [88.200816, 27.910069], [88.200817, 27.910159], [88.201121, 27.910157], [88.201122, 27.910247], [88.201326, 27.910245], [88.201327, 27.910335], [88.201631, 27.910333], [88.201632, 27.910423], [88.201836, 27.910421], [88.201837, 27.910511], [88.20204, 27.91051], [88.202041, 27.9106], [88.202244, 27.910598], [88.202245, 27.910688], [88.202347, 27.910687], [88.202348, 27.910778], [88.202652, 27.910775], [88.202653, 27.910865], [88.202755, 27.910864], [88.202756, 27.910955], [88.203061, 27.910952], [88.203062, 27.911042], [88.203265, 27.91104], [88.203266, 27.911131], [88.203368, 27.91113], [88.203369, 27.91122], [88.20347, 27.911219], [88.203471, 27.911309], [88.203674, 27.911308], [88.203675, 27.911398], [88.203777, 27.911397], [88.203778, 27.911487], [88.203981, 27.911485], [88.203982, 27.911576], [88.204084, 27.911575], [88.204085, 27.911665], [88.20439, 27.911662], [88.204391, 27.911753], [88.204594, 27.911751], [88.204595, 27.911841], [88.204798, 27.911839], [88.204799, 27.91193], [88.204901, 27.911929], [88.204902, 27.912019], [88.205105, 27.912017], [88.205106, 27.912107], [88.205207, 27.912107], [88.205208, 27.912197], [88.20531, 27.912196], [88.205311, 27.912286], [88.205413, 27.912285], [88.205414, 27.912376], [88.205718, 27.912373], [88.205719, 27.912463], [88.205923, 27.912461], [88.205924, 27.912552], [88.206025, 27.912551], [88.206026, 27.912641], [88.206128, 27.91264], [88.206129, 27.91273], [88.206332, 27.912729], [88.206333, 27.912819], [88.206435, 27.912818], [88.206436, 27.912908], [88.206639, 27.912906], [88.20664, 27.912997], [88.206742, 27.912996], [88.206743, 27.913086], [88.206844, 27.913085], [88.206846, 27.913266], [88.206948, 27.913265], [88.20695, 27.913445], [88.207051, 27.913444], [88.207052, 27.913535], [88.207256, 27.913533], [88.207257, 27.913623], [88.20746, 27.913621], [88.207462, 27.913802], [88.207767, 27.913799], [88.207769, 27.91398], [88.207667, 27.913981], [88.207669, 27.914161], [88.208075, 27.914158], [88.208074, 27.914067], [88.208176, 27.914066], [88.208177, 27.914157], [88.208279, 27.914156], [88.208282, 27.914427], [88.208383, 27.914426], [88.208384, 27.914516], [88.208486, 27.914515], [88.208487, 27.914605], [88.208588, 27.914604], [88.20859, 27.914785], [88.208692, 27.914784], [88.208693, 27.914874], [88.208795, 27.914873], [88.208796, 27.914964], [88.208999, 27.914962], [88.209, 27.915052], [88.209101, 27.915051], [88.209103, 27.915232], [88.209205, 27.915231], [88.209206, 27.915321], [88.209308, 27.91532], [88.20932, 27.916403], [88.208913, 27.916407]], [[88.18673, 27.913531], [88.186933, 27.913529], [88.186932, 27.913439], [88.187034, 27.913438], [88.187032, 27.913257], [88.186727, 27.91326], [88.18673, 27.913531]], [[88.187024, 27.912535], [88.187125, 27.912534], [88.187123, 27.912354], [88.187022, 27.912355], [88.187024, 27.912535]], [[88.18905, 27.911976], [88.189151, 27.911975], [88.18915, 27.911885], [88.189252, 27.911884], [88.189251, 27.911794], [88.18915, 27.911795], [88.189149, 27.911705], [88.188945, 27.911706], [88.188947, 27.911887], [88.189049, 27.911886], [88.18905, 27.911976]], [[88.188312, 27.909545], [88.188414, 27.909545], [88.188413, 27.909454], [88.188311, 27.909455], [88.188312, 27.909545]], [[88.182518, 27.909325], [88.18262, 27.909324], [88.182617, 27.909053], [88.182515, 27.909054], [88.182518, 27.909325]], [[88.185871, 27.909296], [88.185972, 27.909295], [88.185971, 27.909205], [88.18587, 27.909205], [88.185871, 27.909296]], [[88.18963, 27.909263], [88.189731, 27.909262], [88.18973, 27.909172], [88.189629, 27.909173], [88.18963, 27.909263]], [[88.190339, 27.909077], [88.190542, 27.909075], [88.19054, 27.908894], [88.190337, 27.908896], [88.190339, 27.909077]], [[88.190644, 27.909074], [88.190745, 27.909073], [88.190744, 27.908983], [88.190643, 27.908984], [88.190644, 27.909074]]]}, "properties": {"lake_id": "south_lhonak", "source": "CASCADE Sprint 1 lake telemetry, seeded from a point inside the lake", "scene_id": "S2A_T45RXL_20230914T044830_L2A", "acquired": "2023-09-14", "status": "best", "area_km2": 1.6437, "classifier_version": "1.0"}}